start=new Date('2023-01-01T00:00:00.000Z').valueOf();
sats=[{"MEAN_ELEMENT_THEORY":"SGP4","FILE":"3728081","INCLINATION":"53.2193","GP_ID":"221891813","EPHEMERIS_TYPE":"0","CLASSIFICATION_TYPE":"U","OBJECT_TYPE":"PAYLOAD","CENTER_NAME":"EARTH","PERIAPSIS":"537.693","TLE_LINE1":"1 52347U 22045S   22365.74780796  .00002872  00000-0  19839-3 0  9992","LAUNCH_DATE":"2022-04-29","SEMIMAJOR_AXIS":"6917.832","EPOCH":"2022-12-31T17:56:50.607744","MEAN_ANOMALY":"339.6256","TIME_SYSTEM":"UTC","DECAY_DATE":null,"REV_AT_EPOCH":"4006","NORAD_CAT_ID":"52347","OBJECT_NAME":"STARLINK-3826","REF_FRAME":"TEME","ECCENTRICITY":"0.00028970","MEAN_MOTION_DOT":"0.00002872","TLE_LINE2":"2 52347  53.2193  24.2682 0002897  20.4852 339.6256 15.08855956 40063","SITE":"AFETR","APOAPSIS":"541.701","RCS_SIZE":"LARGE","PERIOD":"95.437","MEAN_MOTION_DDOT":"0.0000000000000","ARG_OF_PERICENTER":"20.4852","COUNTRY_CODE":"US","OBJECT_ID":"2022-045S","MEAN_MOTION":"15.08855956","ELEMENT_SET_NO":"999","RA_OF_ASC_NODE":"24.2682","BSTAR":"0.00019839000000"},{"EPHEMERIS_TYPE":"0","CLASSIFICATION_TYPE":"U","INCLINATION":"53.2155","MEAN_ELEMENT_THEORY":"SGP4","FILE":"3727988","GP_ID":"221836852","MEAN_ANOMALY":"317.3406","SEMIMAJOR_AXIS":"6917.827","EPOCH":"2022-12-31T11:08:48.629472","TIME_SYSTEM":"UTC","OBJECT_TYPE":"PAYLOAD","TLE_LINE1":"1 52348U 22045T   22365.46445173  .00008685  00000-0  56282-3 0  9990","PERIAPSIS":"538.317","LAUNCH_DATE":"2022-04-29","CENTER_NAME":"EARTH","MEAN_MOTION_DOT":"0.00008685","APOAPSIS":"541.067","TLE_LINE2":"2 52348  53.2155  25.5430 0001988  42.7741 317.3406 15.08857464 40023","SITE":"AFETR","NORAD_CAT_ID":"52348","OBJECT_NAME":"STARLINK-3829","DECAY_DATE":null,"REV_AT_EPOCH":"4002","ECCENTRICITY":"0.00019880","REF_FRAME":"TEME","ELEMENT_SET_NO":"999","RA_OF_ASC_NODE":"25.5430","MEAN_MOTION":"15.08857464","OBJECT_ID":"2022-045T","BSTAR":"0.00056282000000","PERIOD":"95.436","RCS_SIZE":"LARGE","MEAN_MOTION_DDOT":"0.0000000000000","ARG_OF_PERICENTER":"42.7741","COUNTRY_CODE":"US"},{"CLASSIFICATION_TYPE":"U","EPHEMERIS_TYPE":"0","GP_ID":"221837602","INCLINATION":"53.2188","MEAN_ELEMENT_THEORY":"SGP4","FILE":"3727988","TIME_SYSTEM":"UTC","MEAN_ANOMALY":"337.6941","EPOCH":"2022-12-31T11:24:42.197760","SEMIMAJOR_AXIS":"6917.827","LAUNCH_DATE":"2022-04-29","PERIAPSIS":"537.800","TLE_LINE1":"1 52349U 22045U   22365.47548840  .00007816  00000-0  50836-3 0  9991","CENTER_NAME":"EARTH","OBJECT_TYPE":"PAYLOAD","APOAPSIS":"541.585","TLE_LINE2":"2 52349  53.2188  25.4799 0002735  22.4170 337.6941 15.08857304 40021","SITE":"AFETR","MEAN_MOTION_DOT":"0.00007816","ECCENTRICITY":"0.00027350","REF_FRAME":"TEME","OBJECT_NAME":"STARLINK-3819","NORAD_CAT_ID":"52349","REV_AT_EPOCH":"4002","DECAY_DATE":null,"BSTAR":"0.00050836000000","RA_OF_ASC_NODE":"25.4799","ELEMENT_SET_NO":"999","MEAN_MOTION":"15.08857304","OBJECT_ID":"2022-045U","COUNTRY_CODE":"US","ARG_OF_PERICENTER":"22.4170","MEAN_MOTION_DDOT":"0.0000000000000","PERIOD":"95.436","RCS_SIZE":"LARGE"},{"INCLINATION":"53.2157","MEAN_ELEMENT_THEORY":"SGP4","FILE":"3728081","GP_ID":"221891574","EPHEMERIS_TYPE":"0","CLASSIFICATION_TYPE":"U","OBJECT_TYPE":"PAYLOAD","LAUNCH_DATE":"2022-04-29","PERIAPSIS":"537.757","TLE_LINE1":"1 52350U 22045V   22365.79196875  .00002946  00000-0  20308-3 0  9995","CENTER_NAME":"EARTH","MEAN_ANOMALY":"332.9054","SEMIMAJOR_AXIS":"6917.863","EPOCH":"2022-12-31T19:00:26.100000","TIME_SYSTEM":"UTC","OBJECT_NAME":"STARLINK-3754","NORAD_CAT_ID":"52350","REV_AT_EPOCH":"4007","DECAY_DATE":null,"ECCENTRICITY":"0.00028500","REF_FRAME":"TEME","MEAN_MOTION_DOT":"0.00002946","TLE_LINE2":"2 52350  53.2157  24.0625 0002850  27.2087 332.9054 15.08845619 40074","SITE":"AFETR","APOAPSIS":"541.700","PERIOD":"95.437","RCS_SIZE":"LARGE","ARG_OF_PERICENTER":"27.2087","COUNTRY_CODE":"US","MEAN_MOTION_DDOT":"0.0000000000000","RA_OF_ASC_NODE":"24.0625","ELEMENT_SET_NO":"999","MEAN_MOTION":"15.08845619","OBJECT_ID":"2022-045V","BSTAR":"0.00020308000000"},{"OBJECT_NAME":"STARLINK-3838","NORAD_CAT_ID":"52352","REV_AT_EPOCH":"4007","DECAY_DATE":null,"ECCENTRICITY":"0.00031450","REF_FRAME":"TEME","MEAN_MOTION_DOT":"0.00010241","TLE_LINE2":"2 52352  53.2159  24.1154 0003145  27.3822 332.7336 15.08874775 40078","APOAPSIS":"541.815","SITE":"AFETR","PERIOD":"95.435","RCS_SIZE":"LARGE","COUNTRY_CODE":"US","ARG_OF_PERICENTER":"27.3822","MEAN_MOTION_DDOT":"0.0000000000000","RA_OF_ASC_NODE":"24.1154","ELEMENT_SET_NO":"999","MEAN_MOTION":"15.08874775","OBJECT_ID":"2022-045X","BSTAR":"0.00065994000000","INCLINATION":"53.2159","FILE":"3728081","MEAN_ELEMENT_THEORY":"SGP4","GP_ID":"221892314","EPHEMERIS_TYPE":"0","CLASSIFICATION_TYPE":"U","OBJECT_TYPE":"PAYLOAD","LAUNCH_DATE":"2022-04-29","TLE_LINE1":"1 52352U 22045X   22365.78092655  .00010241  00000-0  65994-3 0  9994","PERIAPSIS":"537.463","CENTER_NAME":"EARTH","MEAN_ANOMALY":"332.7336","SEMIMAJOR_AXIS":"6917.774","EPOCH":"2022-12-31T18:44:32.053920","TIME_SYSTEM":"UTC"},{"BSTAR":"0.00073182000000","MEAN_MOTION":"15.08873053","OBJECT_ID":"2022-045Y","RA_OF_ASC_NODE":"24.0832","ELEMENT_SET_NO":"999","ARG_OF_PERICENTER":"29.8620","COUNTRY_CODE":"US","MEAN_MOTION_DDOT":"0.0000000000000","RCS_SIZE":"LARGE","PERIOD":"95.435","SITE":"AFETR","TLE_LINE2":"2 52353  53.2159  24.0832 0002910  29.8620 330.2538 15.08873053 40078","APOAPSIS":"541.657","MEAN_MOTION_DOT":"0.00011389","REF_FRAME":"TEME","ECCENTRICITY":"0.00029100","REV_AT_EPOCH":"4007","DECAY_DATE":null,"OBJECT_NAME":"STARLINK-3807","NORAD_CAT_ID":"52353","TIME_SYSTEM":"UTC","SEMIMAJOR_AXIS":"6917.779","EPOCH":"2022-12-31T18:55:09.009408","MEAN_ANOMALY":"330.2538","CENTER_NAME":"EARTH","LAUNCH_DATE":"2022-04-29","PERIAPSIS":"537.631","TLE_LINE1":"1 52353U 22045Y   22365.78829872  .00011389  00000-0  73182-3 0  9996","OBJECT_TYPE":"PAYLOAD","CLASSIFICATION_TYPE":"U","EPHEMERIS_TYPE":"0","GP_ID":"221891074","MEAN_ELEMENT_THEORY":"SGP4","FILE":"3728081","INCLINATION":"53.2159"},{"TLE_LINE2":"2 52354  53.2183  24.1745 0003009  18.4047 341.7053 15.08841955 40072","APOAPSIS":"541.821","SITE":"AFETR","MEAN_MOTION_DOT":"0.00001858","REF_FRAME":"TEME","ECCENTRICITY":"0.00030090","REV_AT_EPOCH":"4007","DECAY_DATE":null,"OBJECT_NAME":"STARLINK-3876","NORAD_CAT_ID":"52354","BSTAR":"0.00013484000000","MEAN_MOTION":"15.08841955","OBJECT_ID":"2022-045Z","RA_OF_ASC_NODE":"24.1745","ELEMENT_SET_NO":"999","ARG_OF_PERICENTER":"18.4047","COUNTRY_CODE":"US","MEAN_MOTION_DDOT":"0.0000000000000","RCS_SIZE":"LARGE","PERIOD":"95.437","CLASSIFICATION_TYPE":"U","EPHEMERIS_TYPE":"0","GP_ID":"221891324","FILE":"3728081","MEAN_ELEMENT_THEORY":"SGP4","INCLINATION":"53.2183","TIME_SYSTEM":"UTC","SEMIMAJOR_AXIS":"6917.874","EPOCH":"2022-12-31T18:28:37.927488","MEAN_ANOMALY":"341.7053","CENTER_NAME":"EARTH","LAUNCH_DATE":"2022-04-29","TLE_LINE1":"1 52354U 22045Z   22365.76988342  .00001858  00000-0  13484-3 0  9992","PERIAPSIS":"537.658","OBJECT_TYPE":"PAYLOAD"},{"RCS_SIZE":"LARGE","PERIOD":"95.438","MEAN_MOTION_DDOT":"0.0000000000000","COUNTRY_CODE":"US","ARG_OF_PERICENTER":"41.4398","MEAN_MOTION":"15.08838480","OBJECT_ID":"2022-045AA","ELEMENT_SET_NO":"999","RA_OF_ASC_NODE":"24.0992","BSTAR":"0.00021301000000","DECAY_DATE":null,"REV_AT_EPOCH":"4007","NORAD_CAT_ID":"52355","OBJECT_NAME":"STARLINK-3877","REF_FRAME":"TEME","ECCENTRICITY":"0.00023300","MEAN_MOTION_DOT":"0.00003103","SITE":"AFETR","TLE_LINE2":"2 52355  53.2171  24.0992 0002330  41.4398 318.6771 15.08838480 40073","APOAPSIS":"541.362","OBJECT_TYPE":"PAYLOAD","CENTER_NAME":"EARTH","PERIAPSIS":"538.138","TLE_LINE1":"1 52355U 22045AA  22365.78460531  .00003103  00000-0  21301-3 0  9992","LAUNCH_DATE":"2022-04-29","SEMIMAJOR_AXIS":"6917.885","EPOCH":"2022-12-31T18:49:49.898784","MEAN_ANOMALY":"318.6771","TIME_SYSTEM":"UTC","MEAN_ELEMENT_THEORY":"SGP4","FILE":"3728081","INCLINATION":"53.2171","GP_ID":"221892075","EPHEMERIS_TYPE":"0","CLASSIFICATION_TYPE":"U"},{"GP_ID":"221891814","FILE":"3728081","MEAN_ELEMENT_THEORY":"SGP4","INCLINATION":"53.2185","CLASSIFICATION_TYPE":"U","EPHEMERIS_TYPE":"0","CENTER_NAME":"EARTH","PERIAPSIS":"537.910","TLE_LINE1":"1 52356U 22045AB  22365.77083814 -.00000460  00000-0 -10776-4 0  9997","LAUNCH_DATE":"2022-04-29","OBJECT_TYPE":"PAYLOAD","TIME_SYSTEM":"UTC","SEMIMAJOR_AXIS":"6917.834","EPOCH":"2022-12-31T18:30:00.415296","MEAN_ANOMALY":"328.1897","REF_FRAME":"TEME","ECCENTRICITY":"0.00025860","DECAY_DATE":null,"REV_AT_EPOCH":"4007","NORAD_CAT_ID":"52356","OBJECT_NAME":"STARLINK-3801","TLE_LINE2":"2 52356  53.2185  24.1686 0002586  31.9252 328.1897 15.08855157 40071","SITE":"AFETR","APOAPSIS":"541.488","MEAN_MOTION_DOT":"-0.00000460","MEAN_MOTION_DDOT":"0.0000000000000","ARG_OF_PERICENTER":"31.9252","COUNTRY_CODE":"US","RCS_SIZE":"LARGE","PERIOD":"95.437","BSTAR":"-0.00001077600000","MEAN_MOTION":"15.08855157","OBJECT_ID":"2022-045AB","ELEMENT_SET_NO":"999","RA_OF_ASC_NODE":"24.1686"},{"REF_FRAME":"TEME","ECCENTRICITY":"0.00032410","REV_AT_EPOCH":"4007","DECAY_DATE":null,"OBJECT_NAME":"STARLINK-3821","NORAD_CAT_ID":"52357","APOAPSIS":"541.957","TLE_LINE2":"2 52357  53.2201  24.1381 0003241  17.9033 342.2073 15.08850071 40076","SITE":"AFETR","MEAN_MOTION_DOT":"0.00001703","ARG_OF_PERICENTER":"17.9033","COUNTRY_CODE":"US","MEAN_MOTION_DDOT":"0.0000000000000","RCS_SIZE":"LARGE","PERIOD":"95.437","BSTAR":"0.00012509000000","MEAN_MOTION":"15.08850071","OBJECT_ID":"2022-045AC","RA_OF_ASC_NODE":"24.1381","ELEMENT_SET_NO":"999","GP_ID":"221890574","FILE":"3728081","MEAN_ELEMENT_THEORY":"SGP4","INCLINATION":"53.2201","CLASSIFICATION_TYPE":"U","EPHEMERIS_TYPE":"0","CENTER_NAME":"EARTH","LAUNCH_DATE":"2022-04-29","PERIAPSIS":"537.473","TLE_LINE1":"1 52357U 22045AC  22365.77726101  .00001703  00000-0  12509-3 0  9995","OBJECT_TYPE":"PAYLOAD","TIME_SYSTEM":"UTC","EPOCH":"2022-12-31T18:39:15.351264","SEMIMAJOR_AXIS":"6917.850","MEAN_ANOMALY":"342.2073"}];
